FENGYUN 1C DEB          
1 31007U 99025BCZ 26066.44908572  .00015300  00000+0  30422-2 0  9996
2 31007  98.0951  61.1833 0065140 130.8474 229.8399 14.60829421993303
FENGYUN 1C DEB          
1 31009U 99025BDB 26066.22365612  .00000754  00000+0  53084-3 0  9993
2 31009  98.9009  64.7801 0055574   3.0495 126.7901 14.00427622970430
FENGYUN 1C DEB          
1 31010U 99025BDC 26066.44450268  .00012780  00000+0  48722-2 0  9995
2 31010 101.7341 246.9689 0109291 134.7592 226.2535 14.27755398968370
FENGYUN 1C DEB          
1 31012U 99025BDE 26064.68529727  .00000650  00000+0  27098-3 0  9995
2 31012  98.9070 329.4402 0082608  11.5822  18.1590 14.27951246989314
FENGYUN 1C DEB          
1 31014U 99025BDG 26065.59662464  .00000414  00000+0  30901-3 0  9999
2 31014  98.8807  43.4880 0087808 322.8272 101.0096 13.98528719970089
FENGYUN 1C DEB          
1 31016U 99025BDJ 26065.99868772  .00000919  00000+0  34327-3 0  9991
2 31016  98.4333  84.3108 0113348  25.7441   4.3417 14.30638582986754
FENGYUN 1C DEB          
1 31017U 99025BDK 26061.42787809  .00000709  00000+0  40879-3 0  9993
2 31017  98.6898  49.6643 0113744 123.6262  29.7683 14.08940869974189
FENGYUN 1C DEB          
1 31018U 99025BDL 26066.17989433  .00003536  00000+0  17354-2 0  9990
2 31018  99.0173 159.1964 0057998 242.4239 117.1036 14.17521544972510
FENGYUN 1C DEB          
1 31019U 99025BDM 26065.31746707  .00001491  00000+0  40928-2 0  9992
2 31019  98.7163 239.8067 1111213 122.4551 358.6418 11.83213906561691
FENGYUN 1C DEB          
1 31021U 99025BDP 26063.12589547  .00007102  00000+0  57540-3 0  9993
2 31021  98.3474 181.4021 0263049 342.4973  16.7296 14.76744862746330
FENGYUN 1C DEB          
1 31022U 99025BDQ 26065.92206733  .00000505  00000+0  42279-3 0  9990
2 31022  99.5112 316.5503 0108931 257.1676 101.7293 13.90557493631780
FENGYUN 1C DEB          
1 31023U 99025BDR 26055.19175155  .00000295  00000+0  19737-3 0  9991
2 31023  98.8230  43.7893 0082836  15.9908 344.3847 14.06735466705348
FENGYUN 1C DEB          
1 31024U 99025BDS 26060.55464719  .00000640  00000+0  30843-3 0  9990
2 31024  99.0420 340.7282 0073333 259.9970  99.2924 14.21000190978234
FENGYUN 1C DEB          
1 31025U 99025BDT 26059.19216811  .00000870  00000+0  36365-3 0  9997
2 31025  98.5859  52.1896 0172689 147.7218 213.4668 14.20808746654657
FENGYUN 1C DEB          
1 31026U 99025BDU 26065.04941287  .00000240  00000+0  23804-3 0  9996
2 31026  98.7869   0.1261 0134022 317.9551 102.3020 13.83445379691780
FENGYUN 1C DEB          
1 31028U 99025BDW 26066.56824122  .00000513  00000+0  40724-3 0  9997
2 31028  98.7118 357.9395 0166204  61.9023 299.8826 13.89138257631811
