[{"OBJECT_NAME":"FENGYUN 1C DEB","OBJECT_ID":"1999-025BCZ","EPOCH":"2026-03-07T10:46:41.006208","MEAN_MOTION":14.60829421,"ECCENTRICITY":0.006514,"INCLINATION":98.0951,"RA_OF_ASC_NODE":61.1833,"ARG_OF_PERICENTER":130.8474,"MEAN_ANOMALY":229.8399,"EPHEMERIS_TYPE":0,"CLASSIFICATION_TYPE":"U","NORAD_CAT_ID":31007,"ELEMENT_SET_NO":999,"REV_AT_EPOCH":99330,"BSTAR":0.0030422237,"MEAN_MOTION_DOT":0.000153,"MEAN_MOTION_DDOT":0},{"OBJECT_NAME":"FENGYUN 1C DEB","OBJECT_ID":"1999-025BDB","EPOCH":"2026-03-07T05:22:03.888768","MEAN_MOTION":14.00427622,"ECCENTRICITY":0.0055574,"INCLINATION":98.9009,"RA_OF_ASC_NODE":64.7801,"ARG_OF_PERICENTER":3.0495,"MEAN_ANOMALY":126.7901,"EPHEMERIS_TYPE":0,"CLASSIFICATION_TYPE":"U","NORAD_CAT_ID":31009,"ELEMENT_SET_NO":999,"REV_AT_EPOCH":97043,"BSTAR":0.00053084,"MEAN_MOTION_DOT":7.54e-6,"MEAN_MOTION_DDOT":0},{"OBJECT_NAME":"FENGYUN 1C DEB","OBJECT_ID":"1999-025BDC","EPOCH":"2026-03-07T10:40:05.031552","MEAN_MOTION":14.27755398,"ECCENTRICITY":0.01092916,"INCLINATION":101.7341,"RA_OF_ASC_NODE":246.9689,"ARG_OF_PERICENTER":134.7592,"MEAN_ANOMALY":226.2535,"EPHEMERIS_TYPE":0,"CLASSIFICATION_TYPE":"U","NORAD_CAT_ID":31010,"ELEMENT_SET_NO":999,"REV_AT_EPOCH":96837,"BSTAR":0.0048722472,"MEAN_MOTION_DOT":0.0001278,"MEAN_MOTION_DDOT":0},{"OBJECT_NAME":"FENGYUN 1C DEB","OBJECT_ID":"1999-025BDE","EPOCH":"2026-03-05T16:26:49.684128","MEAN_MOTION":14.27951246,"ECCENTRICITY":0.00826087,"INCLINATION":98.907,"RA_OF_ASC_NODE":329.4402,"ARG_OF_PERICENTER":11.5822,"MEAN_ANOMALY":18.159,"EPHEMERIS_TYPE":0,"CLASSIFICATION_TYPE":"U","NORAD_CAT_ID":31012,"ELEMENT_SET_NO":999,"REV_AT_EPOCH":98931,"BSTAR":0.00027097787,"MEAN_MOTION_DOT":6.5e-6,"MEAN_MOTION_DDOT":0},{"OBJECT_NAME":"FENGYUN 1C DEB","OBJECT_ID":"1999-025BDG","EPOCH":"2026-03-06T14:19:08.368896","MEAN_MOTION":13.98528719,"ECCENTRICITY":0.00878086,"INCLINATION":98.8807,"RA_OF_ASC_NODE":43.488,"ARG_OF_PERICENTER":322.8272,"MEAN_ANOMALY":101.0096,"EPHEMERIS_TYPE":0,"CLASSIFICATION_TYPE":"U","NORAD_CAT_ID":31014,"ELEMENT_SET_NO":999,"REV_AT_EPOCH":97008,"BSTAR":0.00030900786,"MEAN_MOTION_DOT":4.14e-6,"MEAN_MOTION_DDOT":0},{"OBJECT_NAME":"FENGYUN 1C DEB","OBJECT_ID":"1999-025BDJ","EPOCH":"2026-03-06T23:58:06.619008","MEAN_MOTION":14.30638582,"ECCENTRICITY":0.01133486,"INCLINATION":98.4333,"RA_OF_ASC_NODE":84.3108,"ARG_OF_PERICENTER":25.7441,"MEAN_ANOMALY":4.3417,"EPHEMERIS_TYPE":0,"CLASSIFICATION_TYPE":"U","NORAD_CAT_ID":31016,"ELEMENT_SET_NO":999,"REV_AT_EPOCH":98675,"BSTAR":0.00034327137,"MEAN_MOTION_DOT":9.19e-6,"MEAN_MOTION_DDOT":0},{"OBJECT_NAME":"FENGYUN 1C DEB","OBJECT_ID":"1999-025BDK","EPOCH":"2026-03-02T10:16:08.666976","MEAN_MOTION":14.08940869,"ECCENTRICITY":0.01137446,"INCLINATION":98.6898,"RA_OF_ASC_NODE":49.6643,"ARG_OF_PERICENTER":123.6262,"MEAN_ANOMALY":29.7683,"EPHEMERIS_TYPE":0,"CLASSIFICATION_TYPE":"U","NORAD_CAT_ID":31017,"ELEMENT_SET_NO":999,"REV_AT_EPOCH":97418,"BSTAR":0.00040878794,"MEAN_MOTION_DOT":7.09e-6,"MEAN_MOTION_DDOT":0},{"OBJECT_NAME":"FENGYUN 1C DEB","OBJECT_ID":"1999-025BDL","EPOCH":"2026-03-07T04:19:02.870112","MEAN_MOTION":14.17521544,"ECCENTRICITY":0.00579981,"INCLINATION":99.0173,"RA_OF_ASC_NODE":159.1964,"ARG_OF_PERICENTER":242.4239,"MEAN_ANOMALY":117.1036,"EPHEMERIS_TYPE":0,"CLASSIFICATION_TYPE":"U","NORAD_CAT_ID":31018,"ELEMENT_SET_NO":999,"REV_AT_EPOCH":97251,"BSTAR":0.0017354177,"MEAN_MOTION_DOT":3.536e-5,"MEAN_MOTION_DDOT":0},{"OBJECT_NAME":"FENGYUN 1C DEB","OBJECT_ID":"1999-025BDM","EPOCH":"2026-03-06T07:37:09.154848","MEAN_MOTION":11.83213906,"ECCENTRICITY":0.11112138,"INCLINATION":98.7163,"RA_OF_ASC_NODE":239.8067,"ARG_OF_PERICENTER":122.4551,"MEAN_ANOMALY":358.6418,"EPHEMERIS_TYPE":0,"CLASSIFICATION_TYPE":"U","NORAD_CAT_ID":31019,"ELEMENT_SET_NO":999,"REV_AT_EPOCH":56169,"BSTAR":0.0040928292,"MEAN_MOTION_DOT":1.491e-5,"MEAN_MOTION_DDOT":0},{"OBJECT_NAME":"FENGYUN 1C DEB","OBJECT_ID":"1999-025BDP","EPOCH":"2026-03-04T03:01:17.368608","MEAN_MOTION":14.76744862,"ECCENTRICITY":0.02630499,"INCLINATION":98.3474,"RA_OF_ASC_NODE":181.4021,"ARG_OF_PERICENTER":342.4973,"MEAN_ANOMALY":16.7296,"EPHEMERIS_TYPE":0,"CLASSIFICATION_TYPE":"U","NORAD_CAT_ID":31021,"ELEMENT_SET_NO":999,"REV_AT_EPOCH":74633,"BSTAR":0.00057539763,"MEAN_MOTION_DOT":7.102e-5,"MEAN_MOTION_DDOT":0},{"OBJECT_NAME":"FENGYUN 1C DEB","OBJECT_ID":"1999-025BDQ","EPOCH":"2026-03-06T22:07:46.617312","MEAN_MOTION":13.90557493,"ECCENTRICITY":0.01089311,"INCLINATION":99.5112,"RA_OF_ASC_NODE":316.5503,"ARG_OF_PERICENTER":257.1676,"MEAN_ANOMALY":101.7293,"EPHEMERIS_TYPE":0,"CLASSIFICATION_TYPE":"U","NORAD_CAT_ID":31022,"ELEMENT_SET_NO":999,"REV_AT_EPOCH":63178,"BSTAR":0.00042279001,"MEAN_MOTION_DOT":5.05e-6,"MEAN_MOTION_DDOT":0},{"OBJECT_NAME":"FENGYUN 1C DEB","OBJECT_ID":"1999-025BDR","EPOCH":"2026-02-24T04:36:07.333920","MEAN_MOTION":14.06735466,"ECCENTRICITY":0.00828366,"INCLINATION":98.823,"RA_OF_ASC_NODE":43.7893,"ARG_OF_PERICENTER":15.9908,"MEAN_ANOMALY":344.3847,"EPHEMERIS_TYPE":0,"CLASSIFICATION_TYPE":"U","NORAD_CAT_ID":31023,"ELEMENT_SET_NO":999,"REV_AT_EPOCH":70534,"BSTAR":0.00019737256,"MEAN_MOTION_DOT":2.95e-6,"MEAN_MOTION_DDOT":0},{"OBJECT_NAME":"FENGYUN 1C DEB","OBJECT_ID":"1999-025BDS","EPOCH":"2026-03-01T13:18:41.517216","MEAN_MOTION":14.2100019,"ECCENTRICITY":0.00733335,"INCLINATION":99.042,"RA_OF_ASC_NODE":340.7282,"ARG_OF_PERICENTER":259.997,"MEAN_ANOMALY":99.2924,"EPHEMERIS_TYPE":0,"CLASSIFICATION_TYPE":"U","NORAD_CAT_ID":31024,"ELEMENT_SET_NO":999,"REV_AT_EPOCH":97823,"BSTAR":0.00030842633,"MEAN_MOTION_DOT":6.4e-6,"MEAN_MOTION_DDOT":0},{"OBJECT_NAME":"FENGYUN 1C DEB","OBJECT_ID":"1999-025BDT","EPOCH":"2026-02-28T04:36:43.324704","MEAN_MOTION":14.20808746,"ECCENTRICITY":0.01726892,"INCLINATION":98.5859,"RA_OF_ASC_NODE":52.1896,"ARG_OF_PERICENTER":147.7218,"MEAN_ANOMALY":213.4668,"EPHEMERIS_TYPE":0,"CLASSIFICATION_TYPE":"U","NORAD_CAT_ID":31025,"ELEMENT_SET_NO":999,"REV_AT_EPOCH":65465,"BSTAR":0.00036364954,"MEAN_MOTION_DOT":8.7e-6,"MEAN_MOTION_DDOT":0},{"OBJECT_NAME":"FENGYUN 1C DEB","OBJECT_ID":"1999-025BDU","EPOCH":"2026-03-06T01:11:09.271968","MEAN_MOTION":13.83445379,"ECCENTRICITY":0.01340228,"INCLINATION":98.7869,"RA_OF_ASC_NODE":0.1261,"ARG_OF_PERICENTER":317.9551,"MEAN_ANOMALY":102.302,"EPHEMERIS_TYPE":0,"CLASSIFICATION_TYPE":"U","NORAD_CAT_ID":31026,"ELEMENT_SET_NO":999,"REV_AT_EPOCH":69178,"BSTAR":0.00023803727,"MEAN_MOTION_DOT":2.4e-6,"MEAN_MOTION_DDOT":0},{"OBJECT_NAME":"FENGYUN 1C DEB","OBJECT_ID":"1999-025BDW","EPOCH":"2026-03-07T13:38:16.041408","MEAN_MOTION":13.89138257,"ECCENTRICITY":0.01662042,"INCLINATION":98.7118,"RA_OF_ASC_NODE":357.9395,"ARG_OF_PERICENTER":61.9023,"MEAN_ANOMALY":299.8826,"EPHEMERIS_TYPE":0,"CLASSIFICATION_TYPE":"U","NORAD_CAT_ID":31028,"ELEMENT_SET_NO":999,"REV_AT_EPOCH":63181,"BSTAR":0.00040723602,"MEAN_MOTION_DOT":5.13e-6,"MEAN_MOTION_DDOT":0}]
